STARLINK-37147
1 68295U 26057B   26106.81505367  .00222640  00000+0  14493-2 0  9998
2 68295  97.2853 231.1117 0001421  56.3608 303.7793 15.75279517  4283
STARLINK-37142
1 68296U 26057C   26106.91668981 -.00100079  00000+0 -67675-3 0  9996
2 68296  97.2856 231.2476 0001468  94.3173 185.7674 15.75231258  5193
STARLINK-37115
1 68297U 26057D   26106.91832244  .00188463  00000+0  96168-3 0  9992
2 68297  97.2874 231.2763 0001899  68.2168 291.9302 15.80857796  4302
STARLINK-36355
1 68298U 26057E   26106.66586835  .00350344  00000+0  17477-2 0  9991
2 68298  97.2855 231.0086 0001175  51.2939 308.8435 15.80935721  4268
STARLINK-37118
1 68299U 26057F   26106.91668981 -.01890287  00000+0 -13250-1 0  9995
2 68299  97.2853 231.2792 0001373  70.9501 287.2960 15.77282072  5305
STARLINK-36875
1 68300U 26057G   26106.91681856  .00163627  00000+0  83717-3 0  9999
2 68300  97.2855 231.2789 0001712  48.9152 311.2264 15.80864979  4300
STARLINK-37099
1 68301U 26057H   26106.91531141  .00196916  00000+0  10044-2 0  9990
2 68301  97.2846 231.2799 0001346  78.8232 281.3187 15.80846203  4307
STARLINK-37007
1 68302U 26057J   26106.28079822  .00358201  00000+0  17837-2 0  9998
2 68302  97.2868 230.6115 0000758 116.6587 243.4759 15.80954612  4204
STARLINK-36300
1 68303U 26057K   26106.72465883  .00121098  00000+0  62339-3 0  9994
2 68303  97.2856 231.0812 0001546  52.0512 308.0896 15.80844778  4276
STARLINK-36849
1 68304U 26057L   26106.91668981 -.00116638  00000+0 -78936-3 0  9996
2 68304  97.2853 231.2751 0001585  87.7832 260.3150 15.75261021  5363
STARLINK-36277
1 68305U 26057M   26106.94704795  .00149959  00000+0  98929-3 0  9998
2 68305  97.2866 231.2350 0001343  72.4360 287.7052 15.75176305  4309
STARLINK-36307
1 68306U 26057N   26106.59580058  .00287074  00000+0  14277-2 0  9998
2 68306  97.2853 230.9492 0004632 111.9494 248.2268 15.81157939  4254
STARLINK-36264
1 68307U 26057P   26106.93469748  .00145253  00000+0  95731-3 0  9996
2 68307  97.2863 231.2526 0001354  59.9766 300.1633 15.75212309  4305
STARLINK-37138
1 68308U 26057Q   26106.91668981 -.00076950  00000+0 -51902-3 0  9996
2 68308  97.2864 231.2383 0001351  89.0507 179.0389 15.75219221  5191
STARLINK-37149
1 68309U 26057R   26106.61882173  .00161084  00000+0  10587-2 0  9999
2 68309  97.2865 230.9149 0001244  70.1141 290.0258 15.75230982  4257
STARLINK-37148
1 68310U 26057S   26106.60964657  .00163790  00000+0  10763-2 0  9990
2 68310  97.2858 230.9276 0001844  82.8628 277.2847 15.75227874  4255
