[{"OBJECT_NAME":"STARLINK-37147","OBJECT_ID":"2026-057B","EPOCH":"2026-04-16T19:33:40.637088","MEAN_MOTION":15.75279517,"ECCENTRICITY":0.00014218,"INCLINATION":97.2853,"RA_OF_ASC_NODE":231.1117,"ARG_OF_PERICENTER":56.3608,"MEAN_ANOMALY":303.7793,"EPHEMERIS_TYPE":0,"CLASSIFICATION_TYPE":"U","NORAD_CAT_ID":68295,"ELEMENT_SET_NO":999,"REV_AT_EPOCH":428,"BSTAR":0.0014493468,"MEAN_MOTION_DOT":0.0022264,"MEAN_MOTION_DDOT":0},{"OBJECT_NAME":"STARLINK-37142","OBJECT_ID":"2026-057C","EPOCH":"2026-04-16T22:00:01.999584","MEAN_MOTION":15.75231258,"ECCENTRICITY":0.00014684,"INCLINATION":97.2856,"RA_OF_ASC_NODE":231.2476,"ARG_OF_PERICENTER":94.3173,"MEAN_ANOMALY":185.7674,"EPHEMERIS_TYPE":0,"CLASSIFICATION_TYPE":"U","NORAD_CAT_ID":68296,"ELEMENT_SET_NO":999,"REV_AT_EPOCH":519,"BSTAR":-0.00067675238,"MEAN_MOTION_DOT":-0.00100079,"MEAN_MOTION_DDOT":0},{"OBJECT_NAME":"STARLINK-37115","OBJECT_ID":"2026-057D","EPOCH":"2026-04-16T22:02:23.058816","MEAN_MOTION":15.80857796,"ECCENTRICITY":0.00018996,"INCLINATION":97.2874,"RA_OF_ASC_NODE":231.2763,"ARG_OF_PERICENTER":68.2168,"MEAN_ANOMALY":291.9302,"EPHEMERIS_TYPE":0,"CLASSIFICATION_TYPE":"U","NORAD_CAT_ID":68297,"ELEMENT_SET_NO":999,"REV_AT_EPOCH":430,"BSTAR":0.00096168056,"MEAN_MOTION_DOT":0.00188463,"MEAN_MOTION_DDOT":0},{"OBJECT_NAME":"STARLINK-36355","OBJECT_ID":"2026-057E","EPOCH":"2026-04-16T15:58:51.025440","MEAN_MOTION":15.80935721,"ECCENTRICITY":0.00011756,"INCLINATION":97.2855,"RA_OF_ASC_NODE":231.0086,"ARG_OF_PERICENTER":51.2939,"MEAN_ANOMALY":308.8435,"EPHEMERIS_TYPE":0,"CLASSIFICATION_TYPE":"U","NORAD_CAT_ID":68298,"ELEMENT_SET_NO":999,"REV_AT_EPOCH":426,"BSTAR":0.0017477199,"MEAN_MOTION_DOT":0.00350344,"MEAN_MOTION_DDOT":0},{"OBJECT_NAME":"STARLINK-37118","OBJECT_ID":"2026-057F","EPOCH":"2026-04-16T22:00:01.999584","MEAN_MOTION":15.77282072,"ECCENTRICITY":0.00013736,"INCLINATION":97.2853,"RA_OF_ASC_NODE":231.2792,"ARG_OF_PERICENTER":70.9501,"MEAN_ANOMALY":287.296,"EPHEMERIS_TYPE":0,"CLASSIFICATION_TYPE":"U","NORAD_CAT_ID":68299,"ELEMENT_SET_NO":999,"REV_AT_EPOCH":530,"BSTAR":-0.013249748,"MEAN_MOTION_DOT":-0.01890287,"MEAN_MOTION_DDOT":0},{"OBJECT_NAME":"STARLINK-36875","OBJECT_ID":"2026-057G","EPOCH":"2026-04-16T22:00:13.123584","MEAN_MOTION":15.80864979,"ECCENTRICITY":0.0001712,"INCLINATION":97.2855,"RA_OF_ASC_NODE":231.2789,"ARG_OF_PERICENTER":48.9152,"MEAN_ANOMALY":311.2264,"EPHEMERIS_TYPE":0,"CLASSIFICATION_TYPE":"U","NORAD_CAT_ID":68300,"ELEMENT_SET_NO":999,"REV_AT_EPOCH":430,"BSTAR":0.00083717207,"MEAN_MOTION_DOT":0.00163627,"MEAN_MOTION_DDOT":0},{"OBJECT_NAME":"STARLINK-37099","OBJECT_ID":"2026-057H","EPOCH":"2026-04-16T21:58:02.905824","MEAN_MOTION":15.80846203,"ECCENTRICITY":0.0001346,"INCLINATION":97.2846,"RA_OF_ASC_NODE":231.2799,"ARG_OF_PERICENTER":78.8232,"MEAN_ANOMALY":281.3187,"EPHEMERIS_TYPE":0,"CLASSIFICATION_TYPE":"U","NORAD_CAT_ID":68301,"ELEMENT_SET_NO":999,"REV_AT_EPOCH":430,"BSTAR":0.0010043588,"MEAN_MOTION_DOT":0.00196916,"MEAN_MOTION_DDOT":0},{"OBJECT_NAME":"STARLINK-37007","OBJECT_ID":"2026-057J","EPOCH":"2026-04-16T06:44:20.966208","MEAN_MOTION":15.80954612,"ECCENTRICITY":7.58e-5,"INCLINATION":97.2868,"RA_OF_ASC_NODE":230.6115,"ARG_OF_PERICENTER":116.6587,"MEAN_ANOMALY":243.4759,"EPHEMERIS_TYPE":0,"CLASSIFICATION_TYPE":"U","NORAD_CAT_ID":68302,"ELEMENT_SET_NO":999,"REV_AT_EPOCH":420,"BSTAR":0.0017837,"MEAN_MOTION_DOT":0.00358201,"MEAN_MOTION_DDOT":0},{"OBJECT_NAME":"STARLINK-36300","OBJECT_ID":"2026-057K","EPOCH":"2026-04-16T17:23:30.522912","MEAN_MOTION":15.80844778,"ECCENTRICITY":0.0001546,"INCLINATION":97.2856,"RA_OF_ASC_NODE":231.0812,"ARG_OF_PERICENTER":52.0512,"MEAN_ANOMALY":308.0896,"EPHEMERIS_TYPE":0,"CLASSIFICATION_TYPE":"U","NORAD_CAT_ID":68303,"ELEMENT_SET_NO":999,"REV_AT_EPOCH":427,"BSTAR":0.00062339248,"MEAN_MOTION_DOT":0.00121098,"MEAN_MOTION_DDOT":0},{"OBJECT_NAME":"STARLINK-36849","OBJECT_ID":"2026-057L","EPOCH":"2026-04-16T22:00:01.999584","MEAN_MOTION":15.75261021,"ECCENTRICITY":0.00015858,"INCLINATION":97.2853,"RA_OF_ASC_NODE":231.2751,"ARG_OF_PERICENTER":87.7832,"MEAN_ANOMALY":260.315,"EPHEMERIS_TYPE":0,"CLASSIFICATION_TYPE":"U","NORAD_CAT_ID":68304,"ELEMENT_SET_NO":999,"REV_AT_EPOCH":536,"BSTAR":-0.00078936253,"MEAN_MOTION_DOT":-0.00116638,"MEAN_MOTION_DDOT":0},{"OBJECT_NAME":"STARLINK-36277","OBJECT_ID":"2026-057M","EPOCH":"2026-04-16T22:43:44.942880","MEAN_MOTION":15.75176305,"ECCENTRICITY":0.00013435,"INCLINATION":97.2866,"RA_OF_ASC_NODE":231.235,"ARG_OF_PERICENTER":72.436,"MEAN_ANOMALY":287.7052,"EPHEMERIS_TYPE":0,"CLASSIFICATION_TYPE":"U","NORAD_CAT_ID":68305,"ELEMENT_SET_NO":999,"REV_AT_EPOCH":430,"BSTAR":0.00098929071,"MEAN_MOTION_DOT":0.00149959,"MEAN_MOTION_DDOT":0},{"OBJECT_NAME":"STARLINK-36307","OBJECT_ID":"2026-057N","EPOCH":"2026-04-16T14:17:57.170112","MEAN_MOTION":15.81157939,"ECCENTRICITY":0.00046322,"INCLINATION":97.2853,"RA_OF_ASC_NODE":230.9492,"ARG_OF_PERICENTER":111.9494,"MEAN_ANOMALY":248.2268,"EPHEMERIS_TYPE":0,"CLASSIFICATION_TYPE":"U","NORAD_CAT_ID":68306,"ELEMENT_SET_NO":999,"REV_AT_EPOCH":425,"BSTAR":0.0014277087,"MEAN_MOTION_DOT":0.00287074,"MEAN_MOTION_DDOT":0},{"OBJECT_NAME":"STARLINK-36264","OBJECT_ID":"2026-057P","EPOCH":"2026-04-16T22:25:57.862272","MEAN_MOTION":15.75212309,"ECCENTRICITY":0.00013541,"INCLINATION":97.2863,"RA_OF_ASC_NODE":231.2526,"ARG_OF_PERICENTER":59.9766,"MEAN_ANOMALY":300.1633,"EPHEMERIS_TYPE":0,"CLASSIFICATION_TYPE":"U","NORAD_CAT_ID":68307,"ELEMENT_SET_NO":999,"REV_AT_EPOCH":430,"BSTAR":0.00095730992,"MEAN_MOTION_DOT":0.00145253,"MEAN_MOTION_DDOT":0},{"OBJECT_NAME":"STARLINK-37138","OBJECT_ID":"2026-057Q","EPOCH":"2026-04-16T22:00:01.999584","MEAN_MOTION":15.75219221,"ECCENTRICITY":0.00013519,"INCLINATION":97.2864,"RA_OF_ASC_NODE":231.2383,"ARG_OF_PERICENTER":89.0507,"MEAN_ANOMALY":179.0389,"EPHEMERIS_TYPE":0,"CLASSIFICATION_TYPE":"U","NORAD_CAT_ID":68308,"ELEMENT_SET_NO":999,"REV_AT_EPOCH":519,"BSTAR":-0.00051902273,"MEAN_MOTION_DOT":-0.0007695,"MEAN_MOTION_DDOT":0},{"OBJECT_NAME":"STARLINK-37149","OBJECT_ID":"2026-057R","EPOCH":"2026-04-16T14:51:06.197472","MEAN_MOTION":15.75230982,"ECCENTRICITY":0.00012444,"INCLINATION":97.2865,"RA_OF_ASC_NODE":230.9149,"ARG_OF_PERICENTER":70.1141,"MEAN_ANOMALY":290.0258,"EPHEMERIS_TYPE":0,"CLASSIFICATION_TYPE":"U","NORAD_CAT_ID":68309,"ELEMENT_SET_NO":999,"REV_AT_EPOCH":425,"BSTAR":0.0010587285,"MEAN_MOTION_DOT":0.00161084,"MEAN_MOTION_DDOT":0},{"OBJECT_NAME":"STARLINK-37148","OBJECT_ID":"2026-057S","EPOCH":"2026-04-16T14:37:53.463648","MEAN_MOTION":15.75227874,"ECCENTRICITY":0.0001844,"INCLINATION":97.2858,"RA_OF_ASC_NODE":230.9276,"ARG_OF_PERICENTER":82.8628,"MEAN_ANOMALY":277.2847,"EPHEMERIS_TYPE":0,"CLASSIFICATION_TYPE":"U","NORAD_CAT_ID":68310,"ELEMENT_SET_NO":999,"REV_AT_EPOCH":425,"BSTAR":0.0010762751,"MEAN_MOTION_DOT":0.0016379,"MEAN_MOTION_DDOT":0}]
